[{"OBJECT_NAME":"FENGYUN 1C DEB","OBJECT_ID":"1999-025MM","EPOCH":"2026-03-02T16:10:00.996960","MEAN_MOTION":13.85822802,"ECCENTRICITY":0.013541,"INCLINATION":99.4493,"RA_OF_ASC_NODE":120.6568,"ARG_OF_PERICENTER":293.371,"MEAN_ANOMALY":186.6596,"EPHEMERIS_TYPE":0,"CLASSIFICATION_TYPE":"U","NORAD_CAT_ID":30012,"ELEMENT_SET_NO":999,"REV_AT_EPOCH":96655,"BSTAR":0.00025918,"MEAN_MOTION_DOT":2.72e-6,"MEAN_MOTION_DDOT":0},{"OBJECT_NAME":"FENGYUN 1C DEB","OBJECT_ID":"1999-025MN","EPOCH":"2026-03-02T16:10:40.277856","MEAN_MOTION":13.8788358,"ECCENTRICITY":0.0127923,"INCLINATION":99.5743,"RA_OF_ASC_NODE":88.1205,"ARG_OF_PERICENTER":190.827,"MEAN_ANOMALY":286.4705,"EPHEMERIS_TYPE":0,"CLASSIFICATION_TYPE":"U","NORAD_CAT_ID":30013,"ELEMENT_SET_NO":999,"REV_AT_EPOCH":96790,"BSTAR":0.00025493,"MEAN_MOTION_DOT":2.76e-6,"MEAN_MOTION_DDOT":0},{"OBJECT_NAME":"FENGYUN 1C DEB","OBJECT_ID":"1999-025MQ","EPOCH":"2026-03-02T14:32:36.723840","MEAN_MOTION":14.31119044,"ECCENTRICITY":0.0036763,"INCLINATION":99.2295,"RA_OF_ASC_NODE":74.379,"ARG_OF_PERICENTER":254.164,"MEAN_ANOMALY":231.4452,"EPHEMERIS_TYPE":0,"CLASSIFICATION_TYPE":"U","NORAD_CAT_ID":30015,"ELEMENT_SET_NO":999,"REV_AT_EPOCH":99315,"BSTAR":0.00068521,"MEAN_MOTION_DOT":1.771e-5,"MEAN_MOTION_DDOT":0},{"OBJECT_NAME":"FENGYUN 1C DEB","OBJECT_ID":"1999-025MR","EPOCH":"2026-03-02T18:35:31.952832","MEAN_MOTION":14.8104505,"ECCENTRICITY":0.0045091,"INCLINATION":98.8997,"RA_OF_ASC_NODE":87.3384,"ARG_OF_PERICENTER":146.4014,"MEAN_ANOMALY":273.9719,"EPHEMERIS_TYPE":0,"CLASSIFICATION_TYPE":"U","NORAD_CAT_ID":30016,"ELEMENT_SET_NO":999,"REV_AT_EPOCH":638,"BSTAR":0.0018071,"MEAN_MOTION_DOT":0.00014221,"MEAN_MOTION_DDOT":0},{"OBJECT_NAME":"FENGYUN 1C DEB","OBJECT_ID":"1999-025MS","EPOCH":"2026-03-02T17:21:09.509472","MEAN_MOTION":14.6139897,"ECCENTRICITY":0.0215584,"INCLINATION":98.741,"RA_OF_ASC_NODE":115.9364,"ARG_OF_PERICENTER":289.1104,"MEAN_ANOMALY":68.6865,"EPHEMERIS_TYPE":0,"CLASSIFICATION_TYPE":"U","NORAD_CAT_ID":30017,"ELEMENT_SET_NO":999,"REV_AT_EPOCH":1612,"BSTAR":0.00016197,"MEAN_MOTION_DOT":1.044e-5,"MEAN_MOTION_DDOT":0},{"OBJECT_NAME":"FENGYUN 1C DEB","OBJECT_ID":"1999-025MT","EPOCH":"2026-03-02T19:35:39.355008","MEAN_MOTION":14.74057351,"ECCENTRICITY":0.0113805,"INCLINATION":98.7471,"RA_OF_ASC_NODE":155.7473,"ARG_OF_PERICENTER":304.6176,"MEAN_ANOMALY":176.687,"EPHEMERIS_TYPE":0,"CLASSIFICATION_TYPE":"U","NORAD_CAT_ID":30018,"ELEMENT_SET_NO":999,"REV_AT_EPOCH":1616,"BSTAR":0.00063154,"MEAN_MOTION_DOT":4.546e-5,"MEAN_MOTION_DDOT":0},{"OBJECT_NAME":"FENGYUN 1C DEB","OBJECT_ID":"1999-025MV","EPOCH":"2026-03-02T14:28:43.599360","MEAN_MOTION":14.04643111,"ECCENTRICITY":0.0182524,"INCLINATION":98.8497,"RA_OF_ASC_NODE":68.432,"ARG_OF_PERICENTER":206.5844,"MEAN_ANOMALY":279.731,"EPHEMERIS_TYPE":0,"CLASSIFICATION_TYPE":"U","NORAD_CAT_ID":30020,"ELEMENT_SET_NO":999,"REV_AT_EPOCH":97779,"BSTAR":0.00053815,"MEAN_MOTION_DOT":9.55e-6,"MEAN_MOTION_DDOT":0},{"OBJECT_NAME":"FENGYUN 1C DEB","OBJECT_ID":"1999-025MW","EPOCH":"2026-03-02T13:10:51.047616","MEAN_MOTION":14.04927063,"ECCENTRICITY":0.0073883,"INCLINATION":98.8434,"RA_OF_ASC_NODE":56.013,"ARG_OF_PERICENTER":63.7605,"MEAN_ANOMALY":51.6225,"EPHEMERIS_TYPE":0,"CLASSIFICATION_TYPE":"U","NORAD_CAT_ID":30021,"ELEMENT_SET_NO":999,"REV_AT_EPOCH":98052,"BSTAR":4.2252e-5,"MEAN_MOTION_DOT":2.7e-7,"MEAN_MOTION_DDOT":0},{"OBJECT_NAME":"FENGYUN 1C DEB","OBJECT_ID":"1999-025MX","EPOCH":"2026-03-02T14:10:11.072352","MEAN_MOTION":14.23163117,"ECCENTRICITY":0.0068159,"INCLINATION":99.0683,"RA_OF_ASC_NODE":277.1204,"ARG_OF_PERICENTER":40.9567,"MEAN_ANOMALY":23.174,"EPHEMERIS_TYPE":0,"CLASSIFICATION_TYPE":"U","NORAD_CAT_ID":30022,"ELEMENT_SET_NO":999,"REV_AT_EPOCH":99328,"BSTAR":7.2082e-5,"MEAN_MOTION_DOT":1.2e-6,"MEAN_MOTION_DDOT":0},{"OBJECT_NAME":"FENGYUN 1C DEB","OBJECT_ID":"1999-025MY","EPOCH":"2026-03-02T12:39:10.480896","MEAN_MOTION":14.12005947,"ECCENTRICITY":0.00463592,"INCLINATION":99.2947,"RA_OF_ASC_NODE":262.974,"ARG_OF_PERICENTER":199.7756,"MEAN_ANOMALY":215.3051,"EPHEMERIS_TYPE":0,"CLASSIFICATION_TYPE":"U","NORAD_CAT_ID":30023,"ELEMENT_SET_NO":999,"REV_AT_EPOCH":98322,"BSTAR":0.00048582915,"MEAN_MOTION_DOT":8.51e-6,"MEAN_MOTION_DDOT":0},{"OBJECT_NAME":"FENGYUN 1C DEB","OBJECT_ID":"1999-025ND","EPOCH":"2026-03-02T10:29:15.696672","MEAN_MOTION":14.55912042,"ECCENTRICITY":0.01737713,"INCLINATION":98.1518,"RA_OF_ASC_NODE":56.7873,"ARG_OF_PERICENTER":341.7613,"MEAN_ANOMALY":173.9198,"EPHEMERIS_TYPE":0,"CLASSIFICATION_TYPE":"U","NORAD_CAT_ID":30028,"ELEMENT_SET_NO":999,"REV_AT_EPOCH":881,"BSTAR":0.00083846866,"MEAN_MOTION_DOT":4.465e-5,"MEAN_MOTION_DDOT":0},{"OBJECT_NAME":"FENGYUN 1C DEB","OBJECT_ID":"1999-025NL","EPOCH":"2026-03-02T18:48:11.204928","MEAN_MOTION":14.37027033,"ECCENTRICITY":0.0114464,"INCLINATION":99.273,"RA_OF_ASC_NODE":347.7614,"ARG_OF_PERICENTER":188.1537,"MEAN_ANOMALY":190.0699,"EPHEMERIS_TYPE":0,"CLASSIFICATION_TYPE":"U","NORAD_CAT_ID":30035,"ELEMENT_SET_NO":999,"REV_AT_EPOCH":274,"BSTAR":6.5958e-5,"MEAN_MOTION_DOT":1.57e-6,"MEAN_MOTION_DDOT":0},{"OBJECT_NAME":"FENGYUN 1C DEB","OBJECT_ID":"1999-025NM","EPOCH":"2026-03-02T14:45:07.978752","MEAN_MOTION":14.4654846,"ECCENTRICITY":0.0188375,"INCLINATION":98.2444,"RA_OF_ASC_NODE":91.631,"ARG_OF_PERICENTER":324.7106,"MEAN_ANOMALY":150.7753,"EPHEMERIS_TYPE":0,"CLASSIFICATION_TYPE":"U","NORAD_CAT_ID":30036,"ELEMENT_SET_NO":999,"REV_AT_EPOCH":328,"BSTAR":0.00058902,"MEAN_MOTION_DOT":2.595e-5,"MEAN_MOTION_DDOT":0},{"OBJECT_NAME":"FENGYUN 1C DEB","OBJECT_ID":"1999-025NN","EPOCH":"2026-03-02T12:26:53.420640","MEAN_MOTION":14.34253356,"ECCENTRICITY":0.01731052,"INCLINATION":98.3947,"RA_OF_ASC_NODE":39.9165,"ARG_OF_PERICENTER":176.9315,"MEAN_ANOMALY":306.4978,"EPHEMERIS_TYPE":0,"CLASSIFICATION_TYPE":"U","NORAD_CAT_ID":30037,"ELEMENT_SET_NO":999,"REV_AT_EPOCH":99931,"BSTAR":0.00012468698,"MEAN_MOTION_DOT":3.67e-6,"MEAN_MOTION_DDOT":0},{"OBJECT_NAME":"FENGYUN 1C DEB","OBJECT_ID":"1999-025NP","EPOCH":"2026-03-02T13:38:32.141184","MEAN_MOTION":14.3961081,"ECCENTRICITY":0.025499,"INCLINATION":98.3774,"RA_OF_ASC_NODE":52.4456,"ARG_OF_PERICENTER":222.6613,"MEAN_ANOMALY":258.656,"EPHEMERIS_TYPE":0,"CLASSIFICATION_TYPE":"U","NORAD_CAT_ID":30038,"ELEMENT_SET_NO":999,"REV_AT_EPOCH":40,"BSTAR":0.00022094,"MEAN_MOTION_DOT":9.56e-6,"MEAN_MOTION_DDOT":0},{"OBJECT_NAME":"FENGYUN 1C DEB","OBJECT_ID":"1999-025NR","EPOCH":"2026-03-02T12:22:47.211744","MEAN_MOTION":14.37984617,"ECCENTRICITY":0.00336807,"INCLINATION":98.2304,"RA_OF_ASC_NODE":79.5147,"ARG_OF_PERICENTER":73.7506,"MEAN_ANOMALY":78.8826,"EPHEMERIS_TYPE":0,"CLASSIFICATION_TYPE":"U","NORAD_CAT_ID":30040,"ELEMENT_SET_NO":999,"REV_AT_EPOCH":99074,"BSTAR":0.0017928776,"MEAN_MOTION_DOT":5.419e-5,"MEAN_MOTION_DDOT":0},{"OBJECT_NAME":"FENGYUN 1C DEB","OBJECT_ID":"1999-025NS","EPOCH":"2026-03-02T18:22:07.608576","MEAN_MOTION":14.13345674,"ECCENTRICITY":0.0033912,"INCLINATION":99.4662,"RA_OF_ASC_NODE":177.8561,"ARG_OF_PERICENTER":356.8387,"MEAN_ANOMALY":167.1632,"EPHEMERIS_TYPE":0,"CLASSIFICATION_TYPE":"U","NORAD_CAT_ID":30041,"ELEMENT_SET_NO":999,"REV_AT_EPOCH":98417,"BSTAR":0.00045992,"MEAN_MOTION_DOT":8.19e-6,"MEAN_MOTION_DDOT":0}]
