FENGYUN 1C DEB          
1 30012U 99025MM  26061.67362265  .00000272  00000+0  25918-3 0  9991
2 30012  99.4493 120.6568 0135410 293.3710 186.6596 13.85822802966554
FENGYUN 1C DEB          
1 30013U 99025MN  26061.67407729  .00000276  00000+0  25493-3 0  9999
2 30013  99.5743  88.1205 0127923 190.8270 286.4705 13.87883580967905
FENGYUN 1C DEB          
1 30015U 99025MQ  26061.60598060  .00001771  00000+0  68521-3 0  9993
2 30015  99.2295  74.3790 0036763 254.1640 231.4452 14.31119044993150
FENGYUN 1C DEB          
1 30016U 99025MR  26061.77467538  .00014221  00000+0  18071-2 0  9995
2 30016  98.8997  87.3384 0045091 146.4014 273.9719 14.81045050  6387
FENGYUN 1C DEB          
1 30017U 99025MS  26061.72302673  .00001044  00000+0  16197-3 0  9996
2 30017  98.7410 115.9364 0215584 289.1104  68.6865 14.61398970 16128
FENGYUN 1C DEB          
1 30018U 99025MT  26061.81642772  .00004546  00000+0  63154-3 0  9999
2 30018  98.7471 155.7473 0113805 304.6176 176.6870 14.74057351 16163
FENGYUN 1C DEB          
1 30020U 99025MV  26061.60328240  .00000955  00000+0  53815-3 0  9993
2 30020  98.8497  68.4320 0182524 206.5844 279.7310 14.04643111977799
FENGYUN 1C DEB          
1 30021U 99025MW  26061.54920194  .00000027  00000+0  42252-4 0  9997
2 30021  98.8434  56.0130 0073883  63.7605  51.6225 14.04927063980526
FENGYUN 1C DEB          
1 30022U 99025MX  26061.59040593  .00000120  00000+0  72082-4 0  9997
2 30022  99.0683 277.1204 0068159  40.9567  23.1740 14.23163117993284
FENGYUN 1C DEB          
1 30023U 99025MY  26061.52720464  .00000851  00000+0  48583-3 0  9992
2 30023  99.2947 262.9740 0046359 199.7756 215.3051 14.12005947983225
FENGYUN 1C DEB          
1 30028U 99025ND  26061.43698723  .00004465  00000+0  83847-3 0  9996
2 30028  98.1518  56.7873 0173771 341.7613 173.9198 14.55912042  8812
FENGYUN 1C DEB          
1 30035U 99025NL  26061.78346302  .00000157  00000+0  65958-4 0  9993
2 30035  99.2730 347.7614 0114464 188.1537 190.0699 14.37027033  2745
FENGYUN 1C DEB          
1 30036U 99025NM  26061.61467568  .00002595  00000+0  58902-3 0  9992
2 30036  98.2444  91.6310 0188375 324.7106 150.7753 14.46548460  3283
FENGYUN 1C DEB          
1 30037U 99025NN  26061.51867385  .00000367  00000+0  12469-3 0  9996
2 30037  98.3947  39.9165 0173105 176.9315 306.4978 14.34253356999311
FENGYUN 1C DEB          
1 30038U 99025NP  26061.56842756  .00000956  00000+0  22094-3 0  9996
2 30038  98.3774  52.4456 0254990 222.6613 258.6560 14.39610810   400
FENGYUN 1C DEB          
1 30040U 99025NR  26061.51582421  .00005419  00000+0  17929-2 0  9993
2 30040  98.2304  79.5147 0033680  73.7506  78.8826 14.37984617990744
FENGYUN 1C DEB          
1 30041U 99025NS  26061.76536584  .00000819  00000+0  45992-3 0  9991
2 30041  99.4662 177.8561 0033912 356.8387 167.1632 14.13345674984172
